$$SOE
2459580.500000000, A.D. 2022-Jan-01 00:00:00.0000, 7.886078737241756E+05, -2.052522298781569E+08, 5.736904041424498E+06,
2459587.500000000, A.D. 2022-Jan-08 00:00:00.0000, 1.757627407139516E+07, -2.101959203460490E+08, 6.445032380479157E+06,
2459594.500000000, A.D. 2022-Jan-15 00:00:00.0000, 3.427434917743181E+07, -2.140540187283006E+08, 7.119912128134251E+06,
2459601.500000000, A.D. 2022-Jan-22 00:00:00.0000, 5.081044973208528E+07, -2.168937821108463E+08, 7.760953135467798E+06,
2459608.500000000, A.D. 2022-Jan-29 00:00:00.0000, 6.712479485469557E+07, -2.187827211414884E+08, 8.368000793776199E+06,
2459615.500000000, A.D. 2022-Feb-05 00:00:00.0000, 8.316864770443492E+07, -2.197870825833403E+08, 8.941241050039321E+06,
2459622.500000000, A.D. 2022-Feb-12 00:00:00.0000, 9.890279710463466E+07, -2.199708056040137E+08, 9.481119576381758E+06,
2459629.500000000, A.D. 2022-Feb-19 00:00:00.0000, 1.142961457033596E+08, -2.193948481842145E+08, 9.988274893925190E+06,
2459636.500000000, A.D. 2022-Feb-26 00:00:00.0000, 1.293244379288278E+08, -2.181167949471434E+08, 1.046348420016506E+07,
2459643.500000000, A.D. 2022-Mar-05 00:00:00.0000, 1.439691401584118E+08, -2.161906725367800E+08, 1.090762017930757E+07,
2459650.500000000, A.D. 2022-Mar-12 00:00:00.0000, 1.582164715744919E+08, -2.136669130937437E+08, 1.132161705465575E+07,
2459657.500000000, A.D. 2022-Mar-19 00:00:00.0000, 1.720565759719219E+08, -2.105924197345296E+08, 1.170644426387034E+07,
2459664.500000000, A.D. 2022-Mar-26 00:00:00.0000, 1.854828207057278E+08, -2.070106992937567E+08, 1.206308631679528E+07,
2459671.500000000, A.D. 2022-Apr-02 00:00:00.0000, 1.984912075777726E+08, -2.029620367595873E+08, 1.239252759132904E+07,
2459678.500000000, A.D. 2022-Apr-09 00:00:00.0000, 2.110798808014822E+08, -1.984836929038693E+08, 1.269574101352495E+07,
2459685.500000000, A.D. 2022-Apr-16 00:00:00.0000, 2.232487182693775E+08, -1.936101114107947E+08, 1.297367980132364E+07,
2459692.500000000, A.D. 2022-Apr-23 00:00:00.0000, 2.349989921313829E+08, -1.883731254528180E+08, 1.322727179632538E+07,
2459699.500000000, A.D. 2022-Apr-30 00:00:00.0000, 2.463330856423804E+08, -1.828021599812574E+08, 1.345741582509817E+07,
2459706.500000000, A.D. 2022-May-07 00:00:00.0000, 2.572542597094772E+08, -1.769244278940527E+08, 1.366497921358409E+07,
2459713.500000000, A.D. 2022-May-14 00:00:00.0000, 2.677664623303648E+08, -1.707651147874860E+08, 1.385079623434086E+07,
2459720.500000000, A.D. 2022-May-21 00:00:00.0000, 2.778741719709623E+08, -1.643475503728839E+08, 1.401566746778501E+07,
2459727.500000000, A.D. 2022-May-28 00:00:00.0000, 2.875822685933767E+08, -1.576933671037550E+08, 1.416035983316331E+07,
2459734.500000000, A.D. 2022-Jun-04 00:00:00.0000, 2.968959277590984E+08, -1.508226464080676E+08, 1.428560707370926E+07,
2459741.500000000, A.D. 2022-Jun-11 00:00:00.0000, 3.058205339225744E+08, -1.437540529255469E+08, 1.439211055562115E+07,
2459748.500000000, A.D. 2022-Jun-18 00:00:00.0000, 3.143616096228406E+08, -1.365049573423211E+08, 1.448054028240219E+07,
2459755.500000000, A.D. 2022-Jun-25 00:00:00.0000, 3.225247578509718E+08, -1.290915485846345E+08, 1.455153604780779E+07,
2459762.500000000, A.D. 2022-Jul-02 00:00:00.0000, 3.303156154468518E+08, -1.215289362248731E+08, 1.460570865574889E+07,
2459769.500000000, A.D. 2022-Jul-09 00:00:00.0000, 3.377398160219705E+08, -1.138312437182808E+08, 1.464364114407772E+07,
2459776.500000000, A.D. 2022-Jul-16 00:00:00.0000, 3.448029607875990E+08, -1.060116921614775E+08, 1.466589007463843E+07,
2459783.500000000, A.D. 2022-Jul-23 00:00:00.0000, 3.515105937988140E+08, -9.808267523782609E+07, 1.467298707503558E+07,
2459790.500000000, A.D. 2022-Jul-30 00:00:00.0000, 3.578681806256786E+08, -9.005582940343536E+07, 1.466544033291628E+07,
2459797.500000000, A.D. 2022-Aug-06 00:00:00.0000, 3.638810931588956E+08, -8.194209931141362E+07, 1.464373575257348E+07,
2459804.500000000, A.D. 2022-Aug-13 00:00:00.0000, 3.695545989925148E+08, -7.375179631416905E+07, 1.460833806612726E+07,
2459811.500000000, A.D. 2022-Aug-20 00:00:00.0000, 3.748938532087629E+08, -6.549465109382093E+07, 1.455969199709606E+07,
2459818.500000000, A.D. 2022-Aug-27 00:00:00.0000, 3.799038921308181E+08, -5.717986164669556E+07, 1.449822340779187E+07,
2459825.500000000, A.D. 2022-Sep-03 00:00:00.0000, 3.845896288740346E+08, -4.881613718611149E+07, 1.442434039729247E+07,
2459832.500000000, A.D. 2022-Sep-10 00:00:00.0000, 3.889558504386264E+08, -4.041173835012495E+07, 1.433843434330953E+07,
2459839.500000000, A.D. 2022-Sep-17 00:00:00.0000, 3.930072160846685E+08, -3.197451408642974E+07, 1.424088088554066E+07,
2459846.500000000, A.D. 2022-Sep-24 00:00:00.0000, 3.967482568103172E+08, -2.351193559890688E+07, 1.413204084180434E+07,
2459853.500000000, A.D. 2022-Oct-01 00:00:00.0000, 4.001833759742054E+08, -1.503112767843439E+07, 1.401226103438418E+07,
2459860.500000000, A.D. 2022-Oct-08 00:00:00.0000, 4.033168513034655E+08, -6.538897164982142E+06, 1.388187503331357E+07,
2459867.500000000, A.D. 2022-Oct-15 00:00:00.0000, 4.061528372211201E+08, 1.958242418131830E+06, 1.374120400232074E+07,
2459874.500000000, A.D. 2022-Oct-22 00:00:00.0000, 4.086953652062452E+08, 1.045404815495467E+07, 1.359055771291077E+07,
2459881.500000000, A.D. 2022-Oct-29 00:00:00.0000, 4.109483445958269E+08, 1.894252415721789E+07, 1.343023528768132E+07,
2459888.500000000, A.D. 2022-Nov-05 00:00:00.0000, 4.129155658494266E+08, 2.741789967482153E+07, 1.326052570597263E+07,
2459895.500000000, A.D. 2022-Nov-12 00:00:00.0000, 4.146007042482824E+08, 3.587461000244369E+07, 1.308170835768073E+07,
2459902.500000000, A.D. 2022-Nov-19 00:00:00.0000, 4.160073232583691E+08, 4.430727908218967E+07, 1.289405363538655E+07,
2459909.500000000, A.D. 2022-Nov-26 00:00:00.0000, 4.171388777775909E+08, 5.271070327292702E+07, 1.269782351030643E+07,
2459916.500000000, A.D. 2022-Dec-03 00:00:00.0000, 4.179987173987476E+08, 6.107983615559313E+07, 1.249327207785778E+07,
2459923.500000000, A.D. 2022-Dec-10 00:00:00.0000, 4.185900897061850E+08, 6.940977428547692E+07, 1.228064607214213E+07,
2459930.500000000, A.D. 2022-Dec-17 00:00:00.0000, 4.189161436092331E+08, 7.769574376896405E+07, 1.206018534698483E+07,
2459937.500000000, A.D. 2022-Dec-24 00:00:00.0000, 4.189799328054501E+08, 8.593308751014304E+07, 1.183212331003038E+07,
2459944.500000000, A.D. 2022-Dec-31 00:00:00.0000, 4.187844197186710E+08, 9.411725315320033E+07, 1.159668728760105E+07,
2459951.500000000, A.D. 2023-Jan-07 00:00:00.0000, 4.183324800233526E+08, 1.022437826085739E+08, 1.135409888922413E+07,
2459958.500000000, A.D. 2023-Jan-14 00:00:00.0000, 4.176269057807616E+08, 1.103083035941705E+08, 1.110457459476577E+07,
2459965.500000000, A.D. 2023-Jan-21 00:00:00.0000, 4.166704065424617E+08, 1.183065199583085E+08, 1.084832636620861E+07,
2459972.500000000, A.D. 2023-Jan-28 00:00:00.0000, 4.154656120891560E+08, 1.262342005289389E+08, 1.058556193302171E+07,
2459979.500000000, A.D. 2023-Feb-04 00:00:00.0000, 4.140150765934761E+08, 1.340871694617907E+08, 1.031648501873800E+07,
2459986.500000000, A.D. 2023-Feb-11 00:00:00.0000, 4.123212824101139E+08, 1.418612978442927E+08, 1.004129565881260E+07,
2459993.500000000, A.D. 2023-Feb-18 00:00:00.0000, 4.103866434302593E+08, 1.495524956870317E+08, 9.760190549545377E+06,
2460000.500000000, A.D. 2023-Feb-25 00:00:00.0000, 4.082135082652509E+08, 1.571567041006287E+08, 9.473363392152354E+06,
2460007.500000000, A.D. 2023-Mar-04 00:00:00.0000, 4.058041633670591E+08, 1.646698876404291E+08, 9.181005225835375E+06,
2460014.500000000, A.D. 2023-Mar-11 00:00:00.0000, 4.031608361230710E+08, 1.720880267851011E+08, 8.883304749123685E+06,
2460021.500000000, A.D. 2023-Mar-18 00:00:00.0000, 4.002856979830948E+08, 1.794071104658798E+08, 8.580448622923367E+06,
2460028.500000000, A.D. 2023-Mar-25 00:00:00.0000, 3.971808678333682E+08, 1.866231285658033E+08, 8.272621734360360E+06,
2460035.500000000, A.D. 2023-Apr-01 00:00:00.0000, 3.938484160530071E+08, 1.937320647489629E+08, 7.960007415907368E+06,
2460042.500000000, A.D. 2023-Apr-08 00:00:00.0000, 3.902903686460260E+08, 2.007298908123282E+08, 7.642787777459815E+06,
2460049.500000000, A.D. 2023-Apr-15 00:00:00.0000, 3.865087091213250E+08, 2.076125614260958E+08, 7.321144276900709E+06,
2460056.500000000, A.D. 2023-Apr-22 00:00:00.0000, 3.825053799453722E+08, 2.143760061841843E+08, 6.995258115450516E+06,
2460063.500000000, A.D. 2023-Apr-29 00:00:00.0000, 3.782822863177029E+08, 2.210161211883994E+08, 6.665310392101690E+06,
2460070.500000000, A.D. 2023-May-06 00:00:00.0000, 3.738413005224114E+08, 2.275287619192339E+08, 6.331482325287879E+06,
2460077.500000000, A.D. 2023-May-13 00:00:00.0000, 3.691842658949118E+08, 2.339097364733145E+08, 5.993955559700966E+06,
2460084.500000000, A.D. 2023-May-20 00:00:00.0000, 3.643130006567190E+08, 2.401547986500095E+08, 5.652912497964233E+06,
2460091.500000000, A.D. 2023-May-27 00:00:00.0000, 3.592293018321741E+08, 2.462596408310622E+08, 5.308536638297439E+06,
2460098.500000000, A.D. 2023-Jun-03 00:00:00.0000, 3.539349493270364E+08, 2.522198866522431E+08, 4.961012916332513E+06,
2460105.500000000, A.D. 2023-Jun-10 00:00:00.0000, 3.484317102172425E+08, 2.580310834259590E+08, 4.610528049169078E+06,
2460112.500000000, A.D. 2023-Jun-17 00:00:00.0000, 3.427213433640536E+08, 2.636886942271071E+08, 4.257270870108411E+06,
2460119.500000000, A.D. 2023-Jun-24 00:00:00.0000, 3.368056047061580E+08, 2.691880896696004E+08, 3.901432630883574E+06,
2460126.500000000, A.D. 2023-Jul-01 00:00:00.0000, 3.306862535156928E+08, 2.745245401713526E+08, 3.543207317450345E+06,
2460133.500000000, A.D. 2023-Jul-08 00:00:00.0000, 3.243650579786093E+08, 2.796932094971835E+08, 3.182792201867461E+06,
2460140.500000000, A.D. 2023-Jul-15 00:00:00.0000, 3.178437988609340E+08, 2.846891467202050E+08, 2.820388518671289E+06,
2460147.500000000, A.D. 2023-Jul-22 00:00:00.0000, 3.111242748306398E+08, 2.895072755373140E+08, 2.456201860752299E+06,
$$EOE